NORAD_CAT_ID,OBJECT_NAME,OBJECT_TYPE,EPOCH,MEAN_MOTION,ECCENTRICITY,INCLINATION,RA_OF_ASC_NODE,ARG_OF_PERICENTER,MEAN_ANOMALY,BSTAR,MEAN_MOTION_DOT,MEAN_MOTION_DDOT,TLE_LINE0,TLE_LINE1,TLE_LINE2,SEMIMAJOR_AXIS,PERIOD,APOGEE,PERIGEE,DECAYED
54765.0,STARLINK-5466,PAYLOAD,2024-04-28 15:27:22,15.08816203,0.0001493,53.2184,217.0797,81.2771,278.839,-0.00024494,-4.181e-05,0.0,0 STARLINK-5466,1 54765U 22175H   24119.64401141 -.00004181  00000-0 -24494-3 0  9994,2 54765  53.2184 217.0797 0001493  81.2771 278.8390 15.08816203 77250,6917.953,95.439,540.851,538.785,0.0
54765.0,STARLINK-5466,PAYLOAD,2024-04-29 12:07:22,15.08838216,0.0001471,53.2178,213.2121,78.2859,281.8298,-9.4724e-05,-1.795e-05,0.0,0 STARLINK-5466,1 54765U 22175H   24120.50512036 -.00001795  00000-0 -94724-4 0  9999,2 54765  53.2178 213.2121 0001471  78.2859 281.8298 15.08838216 75236,6917.886,95.438,540.768,538.733,0.0
54765.0,STARLINK-5466,PAYLOAD,2024-04-29 13:42:45,15.0883897,0.0001454,53.2177,212.9145,77.0451,283.0703,-8.0871e-05,-1.575e-05,0.0,0 STARLINK-5466,1 54765U 22175H   24120.57135973 -.00001575  00000-0 -80871-4 0  9991,2 54765  53.2177 212.9145 0001454  77.0451 283.0703 15.08838970 77394,6917.884,95.438,540.754,538.743,0.0
54765.0,STARLINK-5466,PAYLOAD,2024-04-30 05:36:35,15.08870018,0.0001503,53.2178,209.9404,62.9797,297.1349,-0.00023408,-4.015e-05,0.0,0 STARLINK-5466,1 54765U 22175H   24121.23373875 -.00004015  00000-0 -23408-3 0  9994,2 54765  53.2178 209.9404 0001503  62.9797 297.1349 15.08870018 75344,6917.789,95.436,540.693,538.614,0.0
54765.0,STARLINK-5466,PAYLOAD,2024-04-30 13:33:32,15.08844515,0.0001633,53.2171,208.4529,59.7873,300.3281,0.00050573,7.771e-05,0.0,0 STARLINK-5466,1 54765U 22175H   24121.56495499  .00007771  00000-0  50573-3 0  9990,2 54765  53.2171 208.4529 0001633  59.7873 300.3281 15.08844515 75392,6917.867,95.437,540.861,538.602,0.0
54765.0,STARLINK-5466,PAYLOAD,2024-05-01 11:48:56,15.0884755,0.0001732,53.217,204.2902,61.0388,299.0778,8.3987e-05,1.049e-05,0.0,0 STARLINK-5466,1 54765U 22175H   24122.49231580  .00001049  00000-0  83987-4 0  9990,2 54765  53.2170 204.2902 0001732  61.0388 299.0778 15.08847550 75530,6917.857,95.437,540.92,538.524,0.0
54765.0,STARLINK-5466,PAYLOAD,2024-05-02 14:50:28,15.08850425,0.0001522,53.2172,199.2336,76.0339,284.0823,-6.7954e-05,-1.37e-05,0.0,0 STARLINK-5466,1 54765U 22175H   24123.61839069 -.00001370  00000-0 -67954-4 0  9996,2 54765  53.2172 199.2336 0001522  76.0339 284.0823 15.08850425 77852,6917.849,95.437,540.766,538.661,0.0
54765.0,STARLINK-5466,PAYLOAD,2024-05-03 11:30:29,15.088451,0.0001545,53.2165,195.3683,68.648,291.4677,8.2902e-05,1.032e-05,0.0,0 STARLINK-5466,1 54765U 22175H   24124.47950721  .00001032  00000-0  82902-4 0  9993,2 54765  53.2165 195.3683 0001545  68.6480 291.4677 15.08845100 77982,6917.865,95.437,540.799,538.661,0.0
54765.0,STARLINK-5466,PAYLOAD,2024-05-04 04:59:44,15.08831699,0.0001335,53.2155,192.0964,66.6877,293.4256,1.011e-05,-1.27e-06,0.0,0 STARLINK-5466,1 54765U 22175H   24125.20815926 -.00000127  00000-0  10110-4 0  9999,2 54765  53.2155 192.0964 0001335  66.6877 293.4256 15.08831699 75949,6917.906,95.438,540.694,538.847,0.0
54765.0,STARLINK-5466,PAYLOAD,2024-05-05 11:12:05,15.08801519,0.0001586,53.2147,186.4454,71.6114,288.5051,0.00052608,8.086e-05,0.0,0 STARLINK-5466,1 54765U 22175H   24126.46672688  .00008086  00000-0  52608-3 0  9992,2 54765  53.2147 186.4454 0001586  71.6114 288.5051 15.08801519 76137,6917.998,95.44,540.96,538.766,0.0
54765.0,STARLINK-5466,PAYLOAD,2024-05-05 20:44:23,15.08842114,0.0001493,53.2151,184.6611,62.0335,298.0808,5.6381e-05,6.09e-06,0.0,0 STARLINK-5466,1 54765U 22175H   24126.86415755  .00000609  00000-0  56381-4 0  9992,2 54765  53.2151 184.6611 0001493  62.0335 298.0808 15.08842114 76191,6917.874,95.437,540.772,538.706,0.0
54765.0,STARLINK-5466,PAYLOAD,2024-05-06 11:02:51,15.08842151,0.0001449,53.2157,181.9869,74.1302,285.985,0.00017979,2.575e-05,0.0,0 STARLINK-5466,1 54765U 22175H   24127.46031615  .00002575  00000-0  17979-3 0  9991,2 54765  53.2157 181.9869 0001449  74.1302 285.9850 15.08842151 78433,6917.874,95.437,540.741,538.736,0.0
54765.0,STARLINK-5466,PAYLOAD,2024-05-06 20:35:10,15.08843228,0.0001474,53.2158,180.2029,75.116,284.9995,0.00015087,2.114e-05,0.0,0 STARLINK-5466,1 54765U 22175H   24127.85775617  .00002114  00000-0  15087-3 0  9998,2 54765  53.2158 180.2029 0001474  75.1160 284.9995 15.08843228 78496,6917.871,95.437,540.755,538.716,0.0
54765.0,STARLINK-5466,PAYLOAD,2024-05-07 12:29:01,15.08846621,0.0001479,53.2159,177.2285,75.7203,284.3953,0.00010771,1.427e-05,0.0,0 STARLINK-5466,1 54765U 22175H   24128.52015438  .00001427  00000-0  10771-3 0  9992,2 54765  53.2159 177.2285 0001479  75.7203 284.3953 15.08846621 76447,6917.86,95.437,540.748,538.702,0.0
54765.0,STARLINK-5466,PAYLOAD,2024-05-08 12:19:48,15.0884338,0.000145,53.2152,172.7696,76.6592,283.4562,-5.067e-06,-3.69e-06,0.0,0 STARLINK-5466,1 54765U 22175H   24129.51375744 -.00000369  00000-0 -50670-5 0  9991,2 54765  53.2152 172.7696 0001450  76.6592 283.4562 15.08843380 76597,6917.87,95.437,540.738,538.732,0.0
54765.0,STARLINK-5466,PAYLOAD,2024-05-08 20:16:44,15.08844047,0.0001459,53.2154,171.2829,76.3322,283.7832,9.3066e-06,-1.4e-06,0.0,0 STARLINK-5466,1 54765U 22175H   24129.84495508 -.00000140  00000-0  93066-5 0  9990,2 54765  53.2154 171.2829 0001459  76.3322 283.7832 15.08844047 78796,6917.868,95.437,540.742,538.724,0.0
54765.0,STARLINK-5466,PAYLOAD,2024-05-09 08:59:48,15.08846186,0.0001425,53.2151,168.9033,76.7171,283.398,5.2856e-05,5.53e-06,0.0,0 STARLINK-5466,1 54765U 22175H   24130.37487121  .00000553  00000-0  52856-4 0  9990,2 54765  53.2151 168.9033 0001425  76.7171 283.3980 15.08846186 78877,6917.861,95.437,540.712,538.741,0.0
54765.0,STARLINK-5466,PAYLOAD,2024-05-10 12:01:22,15.08839421,0.0001399,53.2156,163.8468,82.1239,277.9911,6.1273e-05,6.87e-06,0.0,0 STARLINK-5466,1 54765U 22175H   24131.50095637  .00000687  00000-0  61273-4 0  9994,2 54765  53.2156 163.8468 0001399  82.1239 277.9911 15.08839421 76891,6917.882,95.438,540.715,538.779,0.0
54765.0,STARLINK-5466,PAYLOAD,2024-05-11 07:05:59,15.08850739,0.0001501,53.2162,160.2786,85.5695,274.5469,0.00010058,1.314e-05,0.0,0 STARLINK-5466,1 54765U 22175H   24132.29583007  .00001314  00000-0  10058-3 0  9996,2 54765  53.2162 160.2786 0001501  85.5695 274.5469 15.08850739 77011,6917.848,95.437,540.751,538.674,0.0
54765.0,STARLINK-5466,PAYLOAD,2024-05-11 18:13:41,15.08854469,0.0001539,53.2161,158.1975,86.4897,273.6271,0.0001725,2.459e-05,0.0,0 STARLINK-5466,1 54765U 22175H   24132.75950308  .00002459  00000-0  17250-3 0  9991,2 54765  53.2161 158.1975 0001539  86.4897 273.6271 15.08854469 79232,6917.836,95.437,540.766,538.637,0.0
54765.0,STARLINK-5466,PAYLOAD,2024-05-12 05:21:23,15.08844902,0.0001648,53.2161,156.1192,97.8399,262.278,0.00034241,5.166e-05,0.0,0 STARLINK-5466,1 54765U 22175H   24133.22318992  .00005166  00000-0  34241-3 0  9998,2 54765  53.2161 156.1192 0001648  97.8399 262.2780 15.08844902 77154,6917.865,95.437,540.87,538.59,0.0
54765.0,STARLINK-5466,PAYLOAD,2024-05-12 08:32:09,15.08849374,0.0001629,53.2157,155.5242,98.2912,261.8265,0.00012411,1.688e-05,0.0,0 STARLINK-5466,1 54765U 22175H   24133.35566721  .00001688  00000-0  12411-3 0  9997,2 54765  53.2157 155.5242 0001629  98.2912 261.8265 15.08849374 79325,6917.852,95.437,540.844,538.59,0.0
54765.0,STARLINK-5466,PAYLOAD,2024-05-12 18:04:29,15.08826072,0.0001671,53.2158,153.7378,89.9882,270.1302,-0.00028727,-4.855e-05,0.0,0 STARLINK-5466,1 54765U 22175H   24133.75311775 -.00004855  00000-0 -28727-3 0  9996,2 54765  53.2158 153.7378 0001671  89.9882 270.1302 15.08826072 77239,6917.923,95.438,540.944,538.632,0.0
54765.0,STARLINK-5466,PAYLOAD,2024-05-13 05:12:13,15.08789499,0.0001819,53.2164,151.6587,103.922,256.1975,-0.00083308,-0.00013504,0.0,0 STARLINK-5466,1 54765U 22175H   24134.21682110 -.00013504  00000-0 -83308-3 0  9999,2 54765  53.2164 151.6587 0001819 103.9220 256.1975 15.08789499 77301,6918.035,95.441,541.158,538.641,0.0
54765.0,STARLINK-5466,PAYLOAD,2024-05-13 09:58:22,15.08824331,0.0001605,53.216,150.766,98.9109,261.2065,-0.00012856,-2.333e-05,0.0,0 STARLINK-5466,1 54765U 22175H   24134.41553408 -.00002333  00000-0 -12856-3 0  9996,2 54765  53.2160 150.7660 0001605  98.9109 261.2065 15.08824331 79484,6917.928,95.439,540.904,538.683,0.0
54765.0,STARLINK-5466,PAYLOAD,2024-05-13 17:55:18,15.08825712,0.0001535,53.2158,149.2787,95.8515,264.2652,-5.8645e-05,-1.221e-05,0.0,0 STARLINK-5466,1 54765U 22175H   24134.74673672 -.00001221  00000-0 -58645-4 0  9990,2 54765  53.2158 149.2787 0001535  95.8515 264.2652 15.08825712 79538,6917.924,95.438,540.851,538.727,0.0
54765.0,STARLINK-5466,PAYLOAD,2024-05-14 09:49:09,15.08836914,0.0001324,53.2153,146.3026,89.5814,270.533,6.1026e-05,6.83e-06,0.0,0 STARLINK-5466,1 54765U 22175H   24135.40913547  .00000683  00000-0  61026-4 0  9998,2 54765  53.2153 146.3026 0001324  89.5814 270.5330 15.08836914 77486,6917.89,95.438,540.671,538.839,0.0
54765.0,STARLINK-5466,PAYLOAD,2024-05-14 17:46:04,15.08839503,0.0001297,53.2154,144.8156,88.7538,271.3603,0.00010099,1.32e-05,0.0,0 STARLINK-5466,1 54765U 22175H   24135.74033461  .00001320  00000-0  10099-3 0  9995,2 54765  53.2154 144.8156 0001297  88.7538 271.3603 15.08839503 79680,6917.882,95.438,540.644,538.85,0.0
54765.0,STARLINK-5466,PAYLOAD,2024-05-15 04:53:50,15.0875466,0.0001407,53.2151,142.734,108.8766,251.2379,0.001608,0.00025336,0.0,0 STARLINK-5466,1 54765U 22175H   24136.20405344  .00025336  00000-0  16080-2 0  9998,2 54765  53.2151 142.7340 0001407 108.8766 251.2379 15.08754660 77606,6918.141,95.443,540.98,539.033,0.0
54765.0,STARLINK-5466,PAYLOAD,2024-05-15 09:39:56,15.08848089,0.0001251,53.2152,141.8418,87.1736,272.9399,0.00027331,4.065e-05,0.0,0 STARLINK-5466,1 54765U 22175H   24136.40273716  .00004065  00000-0  27331-3 0  9994,2 54765  53.2152 141.8418 0001251  87.1736 272.9399 15.08848089 77630,6917.856,95.437,540.586,538.855,0.0
